EUTELSAT QUANTUM        
1 49056U 21069B   25336.28377926  .00000147  00000+0  00000+0 0  9995
2 49056   0.0154   4.2000 0003691 261.1409 315.9194  1.00271277 15953
EUTELSAT KONNECT VHTS   
1 53765U 22110A   25336.36087353  .00000037  00000+0  00000+0 0  9994
2 53765   0.0576 108.4770 0002715 120.3305 335.2715  1.00268502  4859
EUTELSAT HOTBIRD 13F    
1 54048U 22134A   25336.36278022  .00000108  00000+0  00000+0 0  9999
2 54048   0.0553 288.4275 0001919  67.0912 219.5562  1.00271528 11409
EUTELSAT HOTBIRD 13G    
1 54225U 22146A   25336.36286689  .00000108  00000+0  00000+0 0  9997
2 54225   0.0484 239.7787 0002157 304.1400  31.1819  1.00270969  5491
EUTELSAT 10B            
1 54259U 22157A   25336.36234689  .00000089  00000+0  00000+0 0  9997
2 54259   0.0583 104.7921 0001071  66.8197  40.3244  1.00267677 11053
EUTELSAT 36D            
1 59346U 24059A   25336.28933692  .00000177  00000+0  00000+0 0  9991
2 59346   0.0132 300.2901 0000464 357.1340 274.0170  1.00269594  6178
